LARES-2                 
1 53105U 22080A   26138.74380463 -.00000011  00000+0  00000+0 0  9992
2 53105  70.1687 315.4270 0005378 341.5227  18.5115  6.38965134 89782
GREENCUBE (IO-117)      
1 53109U 22080E   26139.39156274 -.00000003  00000+0  00000+0 0  9990
2 53109  70.1431 308.2634 0008839 296.5004  63.4749  6.42583330 90215
STARLINK-4410           
1 53204U 22084R   26140.07289724  .00025390  00000+0  11959-2 0  9997
2 53204  97.6007 200.7140 0001111  31.9444 328.1857 15.19504275210723
COSMOS 2558             
1 53323U 22089A   26140.20663537  .00065743  00000+0  55408-3 0  9991
2 53323  97.2258 243.2527 0002556 162.8262 197.3087 15.69622431213438
TECMS                   
1 53346U 22090A   26140.27128454  .00002411  00000+0  11026-3 0  9990
2 53346  97.3145 209.1689 0001141 297.8103  62.3017 15.21468998210560
DONGPO 02               
1 53452U 22098J   26140.29407187  .00060188  00000+0  51444-3 0  9994
2 53452  97.5494 269.1942 0001990 107.3872 252.7608 15.69302075210415
DONGPO 01               
1 53453U 22098K   26140.31474061  .00055962  00000+0  51213-3 0  9991
2 53453  97.5555 269.8027 0000857 160.5197 199.6097 15.67641795210387
STARLINK-4400           
1 53468U 22099D   26140.26589659  .00000399  00000+0  31718-4 0  9995
2 53468  97.4661 260.4031 0000958 149.1225 211.0059 15.05650412206749
STARLINK-4621           
1 53676U 22105AE  26140.20221174  .00000241  00000+0  20797-4 0  9994
2 53676  97.4703  20.3497 0002227  81.6187 278.5292 15.05649914203990
SHERPA-LTC2             
1 53754U 22107BG  26139.82527892  .00005262  00000+0  27049-3 0  9999
2 53754  53.2342 340.3655 0397301 146.7319 215.9321 14.69250953198370
CENTISPACE-1 S3         
1 53757U 22108A   26140.30016993  .00000042  00000+0  46426-4 0  9995
2 53757  53.5314 170.5714 0008188 270.6384  89.3653 14.61223194197453
CENTISPACE-1 S4         
1 53758U 22108B   26140.29738261  .00000088  00000+0  55188-4 0  9998
2 53758  53.5288 168.2322 0007807 256.1875 103.8232 14.61896818197481
BLUEWALKER-3            
1 53807U 22111AL  26140.30347404  .00003028  00000+0  90486-4 0  9991
2 53807  53.2272 164.8394 0007435  87.3457 272.8399 15.37888369205919
YUNHAI-1 03             
1 53877U 22115A   26140.25229459  .00000238  00000+0  10345-3 0  9990
2 53877  98.5534 138.7553 0005785 121.2435 238.9317 14.32697386191510
CENTISPACE-1 S5         
1 54020U 22126A   26140.20738176  .00000447  00000+0  12330-3 0  9997
2 54020  54.9996 324.9220 0012980  18.2992 341.8467 14.62957050192945
CENTISPACE-1 S6         
1 54021U 22126B   26140.25517136  .00000315  00000+0  99173-4 0  9999
2 54021  55.0000 326.4675 0014839  17.3763 342.7735 14.62245526192919
OTB-3-GAZELLE           
1 54023U 22127A   26140.24790960  .00000077  00000+0  36132-4 0  9990
2 54023  98.3941 132.3794 0011821 273.5652  86.4186 14.42663119190338
ASO-S                   
1 54029U 22129A   26140.27695244  .00000119  00000+0  40467-4 0  9993
2 54029  98.2752 145.7573 0014417 173.2267 186.9126 14.52046120191371
HJ-2E                   
1 54035U 22132A   26140.27911988  .00005535  00000+0  24489-3 0  9992
2 54035  97.3804 145.1690 0022651 106.2031 254.1700 15.21847593200179
COSMOS 2561             
1 54109U 22137A   26140.16724480  .00010146  00000+0  17627-3 0  9996
2 54109  96.9203 200.2267 0011718 124.1950 236.0416 15.50925941202006
GONETS-M 23             
1 54150U 22139A   26140.24983921  .00000038  00000+0  20625-3 0  9991
2 54150  82.5091   5.6584 0020598 283.9305  75.9483 12.42889588162172
GONETS-M 24             
1 54151U 22139B   26140.30345578  .00000036  00000+0  18900-3 0  9990
2 54151  82.5007   4.7040 0015927 295.2383  64.7045 12.42890181162181
GONETS-M 25             
1 54152U 22139C   26140.28980986  .00000019  00000+0  68006-4 0  9990
2 54152  82.5072   5.3837 0019825 293.1848  66.7144 12.42889244162189
SKIF-D                  
1 54153U 22139D   26139.47708748  .00000023  00000+0  00000+0 0  9994
2 54153  89.9550  96.6762 0007421 212.2337 147.7544  5.00437151 62675
MATS                    
1 54227U 22147A   26139.92982574  .00002031  00000+0  14680-3 0  9990
2 54227  97.6833 141.6543 0010630 300.6531  59.3647 15.05163133193511
JILIN-1 GAOFEN 03D54    
1 54254U 22155D   26140.28322071  .00139576  00000+0  59815-3 0  9994
2 54254  97.6117 290.0005 0001262 176.6514 183.4764 15.84734888195868
EOS-6 (OCEANSAT-3)      
1 54361U 22158A   26140.29558882  .00000170  00000+0  58794-4 0  9991
2 54361  98.3519 238.8623 0002120  78.2448 281.8983 14.47022450183804
DONGPO 09               
1 54685U 22167D   26140.26682772  .00008271  00000+0  24105-3 0  9991
2 54685  97.6885 310.0457 0002088 187.8849 172.2362 15.35652320191169
DONGPO 08               
1 54686U 22167E   26140.26428083  .00007227  00000+0  22893-3 0  9997
2 54686  97.6847 307.3519 0006826 263.3958  96.6506 15.33038077191042
2022-167F               
1 54687U 22167F   26140.27964043  .00112618  00000+0  53708-3 0  9990
2 54687  97.6158 324.9705 0003077 164.2247 195.9118 15.82523134192405
