OBJECT_NAME,OBJECT_ID,EPOCH,MEAN_MOTION,ECCENTRICITY,INCLINATION,RA_OF_ASC_NODE,ARG_OF_PERICENTER,MEAN_ANOMALY,EPHEMERIS_TYPE,CLASSIFICATION_TYPE,NORAD_CAT_ID,ELEMENT_SET_NO,REV_AT_EPOCH,BSTAR,MEAN_MOTION_DOT,MEAN_MOTION_DDOT
LARES-2,2022-080A,2026-05-18T17:51:04.720032,6.38965134,.00053787,70.1687,315.4270,341.5227,18.5115,0,U,53105,999,8978,0,-.11E-6,0
GREENCUBE (IO-117),2022-080E,2026-05-19T09:23:51.020736,6.42583330,.00088396,70.1431,308.2634,296.5004,63.4749,0,U,53109,999,9021,0,-.3E-7,0
STARLINK-4410,2022-084R,2026-05-20T01:44:58.321536,15.19504275,.00011112,97.6007,200.7140,31.9444,328.1857,0,U,53204,999,21072,.11959311E-2,.2539E-3,0
COSMOS 2558,2022-089A,2026-05-20T04:57:33.295968,15.69622431,.0002556,97.2258,243.2527,162.8262,197.3087,0,U,53323,999,21343,.55408E-3,.65743E-3,0
TECMS,2022-090A,2026-05-20T06:30:38.984256,15.21468998,.00011415,97.3145,209.1689,297.8103,62.3017,0,U,53346,999,21056,.11026295E-3,.2411E-4,0
DONGPO 02,2022-098J,2026-05-20T07:03:27.809568,15.69302075,.00019908,97.5494,269.1942,107.3872,252.7608,0,U,53452,999,21041,.51444145E-3,.60188E-3,0
DONGPO 01,2022-098K,2026-05-20T07:33:13.588704,15.67641795,.00008571,97.5555,269.8027,160.5197,199.6097,0,U,53453,999,21038,.51213113E-3,.55962E-3,0
STARLINK-4400,2022-099D,2026-05-20T06:22:53.465376,15.05650412,.00009588,97.4661,260.4031,149.1225,211.0059,0,U,53468,999,20674,.31717806E-4,.399E-5,0
STARLINK-4621,2022-105AE,2026-05-20T04:51:11.094336,15.05649914,.0002227,97.4703,20.3497,81.6187,278.5292,0,U,53676,999,20399,.20797444E-4,.241E-5,0
SHERPA-LTC2,2022-107BG,2026-05-19T19:48:24.098688,14.69250953,.03973015,53.2342,340.3655,146.7319,215.9321,0,U,53754,999,19837,.27048669E-3,.5262E-4,0
CENTISPACE-1 S3,2022-108A,2026-05-20T07:12:14.681952,14.61223194,.00081883,53.5314,170.5714,270.6384,89.3653,0,U,53757,999,19745,.46426265E-4,.42E-6,0
CENTISPACE-1 S4,2022-108B,2026-05-20T07:08:13.857504,14.61896818,.00078071,53.5288,168.2322,256.1875,103.8232,0,U,53758,999,19748,.55188161E-4,.88E-6,0
BLUEWALKER-3,2022-111AL,2026-05-20T07:17:00.157056,15.37888369,.00074358,53.2272,164.8394,87.3457,272.8399,0,U,53807,999,20591,.90485963E-4,.3028E-4,0
YUNHAI-1 03,2022-115A,2026-05-20T06:03:18.252576,14.32697386,.00057857,98.5534,138.7553,121.2435,238.9317,0,U,53877,999,19151,.10344614E-3,.238E-5,0
CENTISPACE-1 S5,2022-126A,2026-05-20T04:58:37.784064,14.62957050,.00129805,54.9996,324.9220,18.2992,341.8467,0,U,54020,999,19294,.12329643E-3,.447E-5,0
CENTISPACE-1 S6,2022-126B,2026-05-20T06:07:26.805504,14.62245526,.00148394,55.0000,326.4675,17.3763,342.7735,0,U,54021,999,19291,.99172874E-4,.315E-5,0
OTB-3-GAZELLE,2022-127A,2026-05-20T05:56:59.389440,14.42663119,.00118216,98.3941,132.3794,273.5652,86.4186,0,U,54023,999,19033,.36131874E-4,.77E-6,0
ASO-S,2022-129A,2026-05-20T06:38:48.690816,14.52046120,.00144175,98.2752,145.7573,173.2267,186.9126,0,U,54029,999,19137,.40467033E-4,.119E-5,0
HJ-2E,2022-132A,2026-05-20T06:41:55.957632,15.21847593,.00226511,97.3804,145.1690,106.2031,254.1700,0,U,54035,999,20017,.24489092E-3,.5535E-4,0
COSMOS 2561,2022-137A,2026-05-20T04:00:49.950720,15.50925941,.0011718,96.9203,200.2267,124.1950,236.0416,0,U,54109,999,20200,.17627E-3,.10146E-3,0
GONETS-M 23,2022-139A,2026-05-20T05:59:46.107744,12.42889588,.00205981,82.5091,5.6584,283.9305,75.9483,0,U,54150,999,16217,.2062494E-3,.38E-6,0
GONETS-M 24,2022-139B,2026-05-20T07:16:58.579392,12.42890181,.00159273,82.5007,4.7040,295.2383,64.7045,0,U,54151,999,16218,.1889991E-3,.36E-6,0
GONETS-M 25,2022-139C,2026-05-20T06:57:19.571904,12.42889244,.00198251,82.5072,5.3837,293.1848,66.7144,0,U,54152,999,16218,.68006096E-4,.19E-6,0
SKIF-D,2022-139D,2026-05-19T11:27:00.358272,5.00437151,.00074218,89.9550,96.6762,212.2337,147.7544,0,U,54153,999,6267,0,.23E-6,0
MATS,2022-147A,2026-05-19T22:18:56.943936,15.05163133,.001063,97.6833,141.6543,300.6531,59.3647,0,U,54227,999,19351,.1468E-3,.2031E-4,0
JILIN-1 GAOFEN 03D54,2022-155D,2026-05-20T06:47:50.269344,15.84734888,.00012627,97.6117,290.0005,176.6514,183.4764,0,U,54254,999,19586,.59814641E-3,.139576E-2,0
EOS-6 (OCEANSAT-3),2022-158A,2026-05-20T07:05:38.874048,14.47022450,.00021207,98.3519,238.8623,78.2448,281.8983,0,U,54361,999,18380,.5879408E-4,.17E-5,0
DONGPO 09,2022-167D,2026-05-20T06:24:13.915008,15.35652320,.00020884,97.6885,310.0457,187.8849,172.2362,0,U,54685,999,19116,.24104743E-3,.8271E-4,0
DONGPO 08,2022-167E,2026-05-20T06:20:33.863712,15.33038077,.00068268,97.6847,307.3519,263.3958,96.6506,0,U,54686,999,19104,.22893318E-3,.7227E-4,0
2022-167F,2022-167F,2026-05-20T06:42:40.933152,15.82523134,.00030773,97.6158,324.9705,164.2247,195.9118,0,U,54687,999,19240,.53707922E-3,.112618E-2,0
